IRIDIUM 112             
1 41925U 17003J   25353.96798632  .00000062  00000+0  15244-4 0  9997
2 41925  86.3985 163.1945 0001850  89.5036 270.6371 14.34218053467583
IRIDIUM 111             
1 41926U 17003K   25354.44368252  .00000051  00000+0  11174-4 0  9999
2 41926  86.3986 163.0624 0002017  94.3444 265.7982 14.34218082467632
IRIDIUM 113             
1 42803U 17039A   25354.49341591  .00000063  00000+0  15515-4 0  9991
2 42803  86.3967  36.8541 0001992  94.7147 265.4277 14.34218116445577
IRIDIUM 123             
1 42804U 17039B   25354.18605301  .00000224  00000+0  72812-4 0  9992
2 42804  86.3962  68.4667 0002206 104.3638 255.7803 14.34218741444294
IRIDIUM 120             
1 42805U 17039C   25354.48707388  .00000127  00000+0  38203-4 0  9992
2 42805  86.3956  36.6624 0002517  94.2564 265.8920 14.34218603445568
IRIDIUM 115             
1 42806U 17039D   25354.10635591  .00000286  00000+0  79110-4 0  9996
2 42806  86.4492  36.9257 0002647 103.1297 257.0199 14.43279019448435
IRIDIUM 118             
1 42807U 17039E   25354.49684081  .00000247  00000+0  80988-4 0  9999
2 42807  86.3960  68.3354 0002022  97.3895 262.7531 14.34217511444334
IRIDIUM 117             
1 42808U 17039F   25354.44609845  .00000228  00000+0  74258-4 0  9992
2 42808  86.3963  68.3161 0002099 101.6683 258.4748 14.34217199444358
